     2.100          NAVIGATION                              RINEX VERSION / TYPE
fic2rin                                 05/22/2012 00:12:47 PGM / RUN BY / DATE
                                                            END OF HEADER
21 12  5 21 10  0  0.0 -.225075520575D-03 -.250111042988D-11  .000000000000D+00
     .520000000000D+02 -.324062500000D+02  .554451666566D-08 -.252967088848D+01
    -.197254121304D-05  .191593234194D-01  .551156699657D-05  .515360747337D+04
     .122400000000D+06  .331550836563D-06 -.109832844181D+01 -.221654772758D-06
     .931057711297D+00  .254937500000D+03 -.225129649645D+01 -.827105880851D-08
    -.176435920693D-09  .100000000000D+01  .168900000000D+04  .000000000000D+00
     .240000000000D+01  .000000000000D+00 -.111758708954D-07  .520000000000D+02
     .115206000000D+06  .400000000000D+01
22 12  5 21 10  0  0.0  .143949873745D-03  .341060513165D-12  .000000000000D+00
     .630000000000D+02  .547500000000D+02  .505092467700D-08  .186806792800D+01
     .279955565929D-05  .607742764987D-02  .106655061245D-04  .515368734360D+04
     .122400000000D+06 -.819563865662D-07 -.442443232279D-01 -.134110450745D-06
     .927936841826D+00  .158625000000D+03 -.201748606062D+01 -.811426656320D-08
    -.293940815243D-09  .100000000000D+01  .168900000000D+04  .000000000000D+00
     .340000000000D+01  .000000000000D+00 -.167638063431D-07  .630000000000D+02
     .115206000000D+06  .400000000000D+01
23 12  5 21 10  0  0.0  .203227158636D-03 -.375166564481D-11  .000000000000D+00
     .133000000000D+03  .107093750000D+03  .462376402690D-08 -.260621825545D-01
     .538863241673D-05  .788286339957D-02  .317022204399D-05  .515363459015D+04
     .122400000000D+06  .106170773506D-06  .100354757111D+01  .130385160446D-07
     .960232973283D+00  .315562500000D+03 -.301199790359D+01 -.840677874751D-08
     .124290891500D-09  .100000000000D+01  .168900000000D+04  .000000000000D+00
     .240000000000D+01  .000000000000D+00 -.200234353542D-07  .133000000000D+03
     .115206000000D+06  .400000000000D+01
24 12  5 21 10  0  0.0 -.602821819484D-04 -.291038304567D-10  .000000000000D+00
     .150000000000D+02  .251875000000D+02  .496306387439D-08 -.261160233234D+01
     .145472586155D-05  .896377384197D-02  .753626227379D-05  .515373795509D+04
     .122400000000D+06 -.167638063431D-07 -.223121724361D+01  .122934579849D-06
     .940185935364D+00  .218218750000D+03 -.988875444894D+00 -.804569227824D-08
     .673242328960D-09  .100000000000D+01  .168900000000D+04  .000000000000D+00
     .240000000000D+01  .630000000000D+02 -.232830643654D-08  .150000000000D+02
     .115206000000D+06  .400000000000D+01
25 12  5 21 10  0  0.0  .342712737620D-04  .454747350886D-12  .000000000000D+00
     .230000000000D+02 -.894687500000D+02  .384301721995D-08 -.304223689866D+01
    -.460259616375D-05  .167271541432D-02  .104065984488D-04  .515372071075D+04
     .122400000000D+06  .186264514923D-07  .307537142847D+01  .707805156708D-07
     .968972827710D+00  .184812500000D+03  .669462670722D+00 -.760174521463D-08
     .185007706314D-09  .100000000000D+01  .168900000000D+04  .000000000000D+00
     .240000000000D+01  .000000000000D+00  .558793544769D-08  .230000000000D+02
     .115206000000D+06  .400000000000D+01
26 12  5 21 10  0  0.0 -.395467039198D-03  .943600753089D-11  .000000000000D+00
     .640000000000D+02  .970312500000D+02  .427839249793D-08 -.175298278425D+00
     .529922544956D-05  .209219903918D-01  .382214784622D-05  .515366340637D+04
     .122400000000D+06 -.162050127983D-06  .107618242951D+01  .208616256714D-06
     .983293375213D+00  .318406250000D+03  .119629888354D+01 -.847606734794D-08
     .190365072327D-09  .100000000000D+01  .168900000000D+04  .000000000000D+00
     .240000000000D+01  .000000000000D+00 -.605359673500D-08  .640000000000D+02
     .115206000000D+06  .400000000000D+01
27 12  5 21 10  0  0.0  .390207394958D-03  .397903932026D-11  .000000000000D+00
     .540000000000D+02 -.669375000000D+02  .430875090534D-08  .714854748272D+00
    -.406615436077D-05  .217096767155D-01  .216998159885D-05  .515372859001D+04
     .122400000000D+06  .149011611938D-07  .200055097715D+01 -.368803739548D-06
     .981809059031D+00  .353218750000D+03 -.108344297094D+01 -.847749597888D-08
    -.334656796942D-09  .100000000000D+01  .168900000000D+04  .000000000000D+00
     .240000000000D+01  .000000000000D+00 -.419095158577D-08  .540000000000D+02
     .115206000000D+06  .400000000000D+01
29 12  5 21 10  0  0.0  .315262470394D-03  .386535248253D-11  .000000000000D+00
     .116000000000D+03  .222187500000D+02  .457269047091D-08 -.227387526917D+01
     .127032399178D-05  .228291191161D-02  .701099634171D-05  .515357706451D+04
     .122400000000D+06 -.242143869400D-07 -.210710964477D+01  .204890966415D-07
     .963194314464D+00  .243218750000D+03 -.113431601297D+01 -.793533053837D-08
     .628597612185D-09  .100000000000D+01  .168900000000D+04  .000000000000D+00
     .240000000000D+01  .000000000000D+00 -.931322574615D-08  .116000000000D+03
     .115206000000D+06  .400000000000D+01
30 12  5 21 10  0  0.0 -.192073173821D-03 -.216004991671D-10  .000000000000D+00
     .620000000000D+02 -.965625000000D+02  .422446168007D-08  .108883219144D+01
    -.516511499882D-05  .110685804393D-01  .101849436760D-04  .515366063118D+04
     .122400000000D+06 -.117346644402D-06  .298458570219D+01 -.193715095520D-06
     .960188611756D+00  .186812500000D+03  .156157332465D+01 -.797068915405D-08
     .467876631797D-10  .100000000000D+01  .168900000000D+04  .000000000000D+00
     .480000000000D+02  .630000000000D+02 -.419095158577D-08  .620000000000D+02
     .115206000000D+06  .400000000000D+01
31 12  5 21 10  0  0.0  .244451686740D-03  .409272615798D-11  .000000000000D+00
     .610000000000D+02 -.820937500000D+02  .419517474587D-08 -.162365640365D+01
    -.418536365032D-05  .778786558658D-02  .250339508057D-05  .515365132904D+04
     .122400000000D+06 -.143423676491D-06  .205609635863D+01  .000000000000D+00
     .980704500290D+00  .344406250000D+03 -.862304193997D+00 -.818462663684D-08
    -.235724104569D-09  .100000000000D+01  .168900000000D+04  .000000000000D+00
     .240000000000D+01  .000000000000D+00 -.130385160446D-07  .610000000000D+02
     .115206000000D+06  .400000000000D+01
32 12  5 21 10  0  0.0 -.446022022516D-03 -.397903932026D-11  .000000000000D+00
     .139000000000D+03  .701250000000D+02  .460340603605D-08 -.104186605061D+01
     .367872416973D-05  .117997804191D-01  .105109065771D-04  .515368236160D+04
     .122400000000D+06 -.316649675369D-07  .307880604120D-01 -.167638063431D-06
     .952178804652D+00  .175281250000D+03 -.576783616850D+00 -.802890586473D-08
    -.110361739867D-09  .100000000000D+01  .168900000000D+04  .000000000000D+00
     .240000000000D+01  .000000000000D+00 -.279396772385D-08  .139000000000D+03
     .115206000000D+06  .400000000000D+01
 6 12  5 21  9 59 44.0  .246660783887D-04 -.261479726760D-11  .000000000000D+00
     .000000000000D+00  .303437500000D+02  .516842957155D-08  .189512706582D+01
     .149570405483D-05  .735113280825D-02  .724196434021D-05  .515368704605D+04
     .122384000000D+06  .782310962677D-07 -.220896708032D+01  .763684511185D-07
     .937903954322D+00  .226531250000D+03 -.543015905375D+00 -.820462746995D-08
     .510378402166D-09  .100000000000D+01  .168900000000D+04  .000000000000D+00
     .240000000000D+01  .000000000000D+00 -.512227416039D-08  .000000000000D+00
     .118716000000D+06  .400000000000D+01
22 12  5 21  9 59 44.0  .143950339407D-03  .341060513165D-12  .000000000000D+00
     .110000000000D+02  .547500000000D+02  .505056751927D-08  .186573440836D+01
     .279955565929D-05  .607742532156D-02  .106655061245D-04  .515368734169D+04
     .122384000000D+06 -.819563865662D-07 -.442442047316D-01 -.134110450745D-06
     .927936825733D+00  .158625000000D+03 -.201748626689D+01 -.811390940547D-08
    -.293583657509D-09  .100000000000D+01  .168900000000D+04  .000000000000D+00
     .240000000000D+01  .000000000000D+00 -.167638063431D-07  .110000000000D+02
     .121236000000D+06  .400000000000D+01
 7 12  5 21  9 59 44.0  .831829383969D-04  .341060513165D-11  .000000000000D+00
     .000000000000D+00 -.860312500000D+02  .420267505829D-08 -.155441477641D+01
    -.449828803539D-05  .536651513539D-02  .233948230743D-05  .515360755539D+04
     .122384000000D+06 -.931322574615D-07  .205320884946D+01 -.782310962677D-07
     .975637605988D+00  .342968750000D+03 -.302869291927D+01 -.811283793226D-08
    -.242867259253D-09  .100000000000D+01  .168900000000D+04  .000000000000D+00
     .240000000000D+01  .000000000000D+00 -.107102096081D-07  .000000000000D+00
     .122166000000D+06  .400000000000D+01
 6 12  5 21 11 59 44.0  .246465206146D-04 -.261479726760D-11  .000000000000D+00
     .100000000000D+01  .263437500000D+02  .505771067395D-08  .294518240164D+01
     .139698386192D-05  .735026609618D-02  .753067433834D-05  .515368936539D+04
     .129584000000D+06 -.689178705215D-07 -.220902662694D+01  .124797224998D-06
     .937908111935D+00  .218500000000D+03 -.542894647021D+00 -.814712507475D-08
     .619311511096D-09  .100000000000D+01  .168900000000D+04  .000000000000D+00
     .240000000000D+01  .000000000000D+00 -.512227416039D-08  .100000000000D+01
     .122406000000D+06  .400000000000D+01
 7 12  5 21 11 59 44.0  .832076184452D-04  .341060513165D-11  .000000000000D+00
     .400000000000D+01 -.831875000000D+02  .431196532495D-08 -.504223642299D+00
    -.450573861599D-05  .536619639024D-02  .244379043579D-05  .515360700035D+04
     .129584000000D+06  .968575477600D-07  .205315083891D+01 -.223517417908D-07
     .975634978587D+00  .340750000000D+03 -.302866518088D+01 -.822891419588D-08
    -.375015620906D-09  .100000000000D+01  .168900000000D+04  .000000000000D+00
     .240000000000D+01  .000000000000D+00 -.107102096081D-07  .400000000000D+01
     .122406000000D+06  .400000000000D+01
